{"type": "FeatureCollection", "features": [ {"type": "Feature", "properties": {"norad_id": 39122, "name": "EUTELSAT 117 WEST A", "group": "eutelsat", "lat": -0.03526829246892268, "lon": -97.51613761106061, "alt_km": 35774.176329788745, "timestamp": "2025-12-16T19:34:23.936669+00:00", "meta": {"OBJECT_NAME": "EUTELSAT 117 WEST A", "OBJECT_ID": "2013-012A", "EPOCH": "2025-12-15T21:23:35.225088", "MEAN_MOTION": 1.00272447, "ECCENTRICITY": 0.00027768, "INCLINATION": 0.022, "RA_OF_ASC_NODE": 34.6109, "ARG_OF_PERICENTER": 234.2844, "MEAN_ANOMALY": 19.9875, "EPHEMERIS_TYPE": 0, "CLASSIFICATION_TYPE": "U", "NORAD_CAT_ID": 39122, "ELEMENT_SET_NO": 999, "REV_AT_EPOCH": 4659, "BSTAR": 0, "MEAN_MOTION_DOT": 9e-08, "MEAN_MOTION_DDOT": 0}, "tle": {"line1": "1 39122U 13012A   25349.89137992  .00000009  00000+0  00000+0 0  9992", "line2": "2 39122   0.0220  34.6109 0002776 234.2844  19.9875  1.00272447 46595"}}, "geometry": {"type": "Point", "coordinates": [-97.51613761106061, -0.03526829246892268]}}, {"type": "Feature", "properties": {"norad_id": 39163, "name": "EUTELSAT 7B", "group": "eutelsat", "lat": 0.05654271245653814, "lon": 26.35927298880129, "alt_km": 35778.16100089104, "timestamp": "2025-12-16T19:34:23.936693+00:00", "meta": {"OBJECT_NAME": "EUTELSAT 7B", "OBJECT_ID": "2013-022A", "EPOCH": "2025-12-15T21:58:54.342336", "MEAN_MOTION": 1.00272765, "ECCENTRICITY": 0.00045936, "INCLINATION": 0.0657, "RA_OF_ASC_NODE": 349.8811, "ARG_OF_PERICENTER": 329.7576, "MEAN_ANOMALY": 101.9207, "EPHEMERIS_TYPE": 0, "CLASSIFICATION_TYPE": "U", "NORAD_CAT_ID": 39163, "ELEMENT_SET_NO": 999, "REV_AT_EPOCH": 4611, "BSTAR": 0, "MEAN_MOTION_DOT": 7.1e-07, "MEAN_MOTION_DDOT": 0}, "tle": {"line1": "1 39163U 13022A   25349.91590674  .00000071  00000+0  00000+0 0  9990", "line2": "2 39163   0.0657 349.8811 0004593 329.7576 101.9207  1.00272765 46118"}}, "geometry": {"type": "Point", "coordinates": [26.35927298880129, 0.05654271245653814]}}, {"type": "Feature", "properties": {"norad_id": 39612, "name": "EXPRESS-AT1", "group": "eutelsat", "lat": 0.029818854583088025, "lon": 75.2892885181749, "alt_km": 35784.99674257288, "timestamp": "2025-12-16T19:34:23.936713+00:00", "meta": {"OBJECT_NAME": "EXPRESS-AT1", "OBJECT_ID": "2014-010A", "EPOCH": "2025-12-16T03:21:00.993312", "MEAN_MOTION": 1.00270589, "ECCENTRICITY": 5.45e-05, "INCLINATION": 0.0153, "RA_OF_ASC_NODE": 301.1938, "ARG_OF_PERICENTER": 188.1524, "MEAN_ANOMALY": 61.9508, "EPHEMERIS_TYPE": 0, "CLASSIFICATION_TYPE": "U", "NORAD_CAT_ID": 39612, "ELEMENT_SET_NO": 999, "REV_AT_EPOCH": 4298, "BSTAR": 0, "MEAN_MOTION_DOT": 1.02e-06, "MEAN_MOTION_DDOT": 0}, "tle": {"line1": "1 39612U 14010A   25350.13959483  .00000102  00000+0  00000+0 0  9995", "line2": "2 39612   0.0153 301.1938 0000545 188.1524  61.9508  1.00270589 42984"}}, "geometry": {"type": "Point", "coordinates": [75.2892885181749, 0.029818854583088025]}}, {"type": "Feature", "properties": {"norad_id": 39613, "name": "EXPRESS-AT2", "group": "eutelsat", "lat": -0.011703739034905899, "lon": 159.13772838123217, "alt_km": 35789.815255768204, "timestamp": "2025-12-16T19:34:23.936726+00:00", "meta": {"OBJECT_NAME": "EXPRESS-AT2", "OBJECT_ID": "2014-010B", "EPOCH": "2025-12-16T16:44:38.561856", "MEAN_MOTION": 1.00273031, "ECCENTRICITY": 0.0001187, "INCLINATION": 0.0166, "RA_OF_ASC_NODE": 310.1218, "ARG_OF_PERICENTER": 353.6049, "MEAN_ANOMALY": 172.8753, "EPHEMERIS_TYPE": 0, "CLASSIFICATION_TYPE": "U", "NORAD_CAT_ID": 39613, "ELEMENT_SET_NO": 999, "REV_AT_EPOCH": 4267, "BSTAR": 0, "MEAN_MOTION_DOT": -2.57e-06, "MEAN_MOTION_DDOT": 0}, "tle": {"line1": "1 39613U 14010B   25350.69766854 -.00000257  00000+0  00000+0 0  9997", "line2": "2 39613   0.0166 310.1218 0001187 353.6049 172.8753  1.00273031 42679"}}, "geometry": {"type": "Point", "coordinates": [159.13772838123217, -0.011703739034905899]}}, {"type": "Feature", "properties": {"norad_id": 39773, "name": "EUTELSAT 3B", "group": "eutelsat", "lat": 0.04224308439101341, "lon": 22.400816741300613, "alt_km": 35802.06862939682, "timestamp": "2025-12-16T19:34:23.936739+00:00", "meta": {"OBJECT_NAME": "EUTELSAT 3B", "OBJECT_ID": "2014-030A", "EPOCH": "2025-12-15T21:00:38.918016", "MEAN_MOTION": 1.00271593, "ECCENTRICITY": 0.00043344, "INCLINATION": 0.0603, "RA_OF_ASC_NODE": 356.292, "ARG_OF_PERICENTER": 235.069, "MEAN_ANOMALY": 171.6636, "EPHEMERIS_TYPE": 0, "CLASSIFICATION_TYPE": "U", "NORAD_CAT_ID": 39773, "ELEMENT_SET_NO": 999, "REV_AT_EPOCH": 4222, "BSTAR": 0, "MEAN_MOTION_DOT": 4.2e-07, "MEAN_MOTION_DDOT": 0}, "tle": {"line1": "1 39773U 14030A   25349.87545044  .00000042  00000+0  00000+0 0  9991", "line2": "2 39773   0.0603 356.2920 0004334 235.0690 171.6636  1.00271593 42224"}}, "geometry": {"type": "Point", "coordinates": [22.400816741300613, 0.04224308439101341]}}, {"type": "Feature", "properties": {"norad_id": 40425, "name": "EUTELSAT 115 WEST B", "group": "eutelsat", "lat": -0.015248762708014897, "lon": -95.61509630361876, "alt_km": 35785.89000137865, "timestamp": "2025-12-16T19:34:23.936751+00:00", "meta": {"OBJECT_NAME": "EUTELSAT 115 WEST B", "OBJECT_ID": "2015-010B", "EPOCH": "2025-12-15T08:27:38.617056", "MEAN_MOTION": 1.00270198, "ECCENTRICITY": 1.61e-05, "INCLINATION": 0.0426, "RA_OF_ASC_NODE": 166.1328, "ARG_OF_PERICENTER": 67.8489, "MEAN_ANOMALY": 222.2908, "EPHEMERIS_TYPE": 0, "CLASSIFICATION_TYPE": "U", "NORAD_CAT_ID": 40425, "ELEMENT_SET_NO": 999, "REV_AT_EPOCH": 3955, "BSTAR": 0, "MEAN_MOTION_DOT": -3e-08, "MEAN_MOTION_DDOT": 0}, "tle": {"line1": "1 40425U 15010B   25349.35253029 -.00000003  00000+0  00000+0 0  9996", "line2": "2 40425   0.0426 166.1328 0000161  67.8489 222.2908  1.00270198 39551"}}, "geometry": {"type": "Point", "coordinates": [-95.61509630361876, -0.015248762708014897]}}, {"type": "Feature", "properties": {"norad_id": 40875, "name": "EUTELSAT 8 WEST B", "group": "eutelsat", "lat": 0.03871662135672084, "lon": 11.34957421072385, "alt_km": 35790.675576245, "timestamp": "2025-12-16T19:34:23.936764+00:00", "meta": {"OBJECT_NAME": "EUTELSAT 8 WEST B", "OBJECT_ID": "2015-039B", "EPOCH": "2025-12-15T21:54:39.749184", "MEAN_MOTION": 1.00271688, "ECCENTRICITY": 0.00042733, "INCLINATION": 0.0644, "RA_OF_ASC_NODE": 347.4174, "ARG_OF_PERICENTER": 279.3067, "MEAN_ANOMALY": 138.7664, "EPHEMERIS_TYPE": 0, "CLASSIFICATION_TYPE": "U", "NORAD_CAT_ID": 40875, "ELEMENT_SET_NO": 999, "REV_AT_EPOCH": 3781, "BSTAR": 0, "MEAN_MOTION_DOT": -4.3e-07, "MEAN_MOTION_DDOT": 0}, "tle": {"line1": "1 40875U 15039B   25349.91296006 -.00000043  00000+0  00000+0 0  9994", "line2": "2 40875   0.0644 347.4174 0004273 279.3067 138.7664  1.00271688 37817"}}, "geometry": {"type": "Point", "coordinates": [11.34957421072385, 0.03871662135672084]}}, {"type": "Feature", "properties": {"norad_id": 41310, "name": "EUTELSAT 9B", "group": "eutelsat", "lat": -0.014739986507135107, "lon": 28.32430936038903, "alt_km": 35794.47561175391, "timestamp": "2025-12-16T19:34:23.936776+00:00", "meta": {"OBJECT_NAME": "EUTELSAT 9B", "OBJECT_ID": "2016-005A", "EPOCH": "2025-12-15T21:00:38.918016", "MEAN_MOTION": 1.00271297, "ECCENTRICITY": 0.00045228, "INCLINATION": 0.0525, "RA_OF_ASC_NODE": 68.3642, "ARG_OF_PERICENTER": 204.2583, "MEAN_ANOMALY": 136.3036, "EPHEMERIS_TYPE": 0, "CLASSIFICATION_TYPE": "U", "NORAD_CAT_ID": 41310, "ELEMENT_SET_NO": 999, "REV_AT_EPOCH": 3627, "BSTAR": 0, "MEAN_MOTION_DOT": 8.4e-07, "MEAN_MOTION_DDOT": 0}, "tle": {"line1": "1 41310U 16005A   25349.87545044  .00000084  00000+0  00000+0 0  9991", "line2": "2 41310   0.0525  68.3642 0004522 204.2583 136.3036  1.00271297 36278"}}, "geometry": {"type": "Point", "coordinates": [28.32430936038903, -0.014739986507135107]}}, {"type": "Feature", "properties": {"norad_id": 41382, "name": "EUTELSAT 65 WEST A", "group": "eutelsat", "lat": -0.017020799912251226, "lon": -45.90138421689893, "alt_km": 35778.80766332434, "timestamp": "2025-12-16T19:34:23.936791+00:00", "meta": {"OBJECT_NAME": "EUTELSAT 65 WEST A", "OBJECT_ID": "2016-014A", "EPOCH": "2025-12-15T20:42:14.371776", "MEAN_MOTION": 1.00270699, "ECCENTRICITY": 0.00023712, "INCLINATION": 0.0595, "RA_OF_ASC_NODE": 322.2052, "ARG_OF_PERICENTER": 311.94, "MEAN_ANOMALY": 55.9731, "EPHEMERIS_TYPE": 0, "CLASSIFICATION_TYPE": "U", "NORAD_CAT_ID": 41382, "ELEMENT_SET_NO": 999, "REV_AT_EPOCH": 3569, "BSTAR": 0, "MEAN_MOTION_DOT": -2.54e-06, "MEAN_MOTION_DDOT": 0}, "tle": {"line1": "1 41382U 16014A   25349.86266634 -.00000254  00000+0  00000+0 0  9994", "line2": "2 41382   0.0595 322.2052 0002371 311.9400  55.9731  1.00270699 35693"}}, "geometry": {"type": "Point", "coordinates": [-45.90138421689893, -0.017020799912251226]}}, {"type": "Feature", "properties": {"norad_id": 41589, "name": "EUTELSAT 117 WEST B", "group": "eutelsat", "lat": 0.012645361279665639, "lon": -97.71787340069208, "alt_km": 35786.51115850751, "timestamp": "2025-12-16T19:34:23.936806+00:00", "meta": {"OBJECT_NAME": "EUTELSAT 117 WEST B", "OBJECT_ID": "2016-038B", "EPOCH": "2025-12-14T23:08:05.366400", "MEAN_MOTION": 1.00269355, "ECCENTRICITY": 1.202e-05, "INCLINATION": 0.0103, "RA_OF_ASC_NODE": 155.4943, "ARG_OF_PERICENTER": 36.5325, "MEAN_ANOMALY": 121.8783, "EPHEMERIS_TYPE": 0, "CLASSIFICATION_TYPE": "U", "NORAD_CAT_ID": 41589, "ELEMENT_SET_NO": 999, "REV_AT_EPOCH": 3481, "BSTAR": 0, "MEAN_MOTION_DOT": 9e-08, "MEAN_MOTION_DDOT": 0}, "tle": {"line1": "1 41589U 16038B   25348.96395100  .00000009  00000+0  00000+0 0  9997", "line2": "2 41589   0.0103 155.4943 0000120  36.5325 121.8783  1.00269355 34818"}}, "geometry": {"type": "Point", "coordinates": [-97.71787340069208, 0.012645361279665639]}}]}